{
  "type": "FeatureCollection",
  "features": [
    {
      "type": "Feature",
      "properties": {
        "norad_id": 24876,
        "name": "GPS BIIR-2  (PRN 13)",
        "group": "gnss",
        "lat": 5.139219719629194,
        "lon": -77.48357133728463,
        "alt_km": 20295.59966023338,
        "timestamp": "2025-12-08T23:34:04.210807+00:00",
        "meta_object_name": "GPS BIIR-2  (PRN 13)",
        "meta_object_id": "1997-035A",
        "meta_epoch": "2025-12-08T05:53:26.454912",
        "meta_mean_motion": 2.00563507,
        "meta_eccentricity": 0.00967273,
        "meta_inclination": 55.8931,
        "meta_ra_of_asc_node": 106.0447,
        "meta_arg_of_pericenter": 57.0161,
        "meta_mean_anomaly": 303.881,
        "meta_ephemeris_type": 0,
        "meta_classification_type": "U",
        "meta_norad_cat_id": 24876,
        "meta_element_set_no": 999,
        "meta_rev_at_epoch": 20812,
        "meta_bstar": 0,
        "meta_mean_motion_dot": 1.5e-07,
        "meta_mean_motion_ddot": 0,
        "tle_line1": "1 24876U 97035A   25342.24544508  .00000015  00000+0  00000+0 0  9993",
        "tle_line2": "2 24876  55.8931 106.0447 0096727  57.0161 303.8810  2.00563507208127"
      },
      "geometry": {
        "type": "Point",
        "coordinates": [
          -77.48357133728463,
          5.139219719629194
        ]
      }
    },
    {
      "type": "Feature",
      "properties": {
        "norad_id": 26360,
        "name": "GPS BIIR-4  (PRN 20)",
        "group": "gnss",
        "lat": -54.699797714449986,
        "lon": -72.08567995277748,
        "alt_km": 20092.587114520706,
        "timestamp": "2025-12-08T23:34:04.210855+00:00",
        "meta_object_name": "GPS BIIR-4  (PRN 20)",
        "meta_object_id": "2000-025A",
        "meta_epoch": "2025-12-08T05:53:38.603616",
        "meta_mean_motion": 2.00567966,
        "meta_eccentricity": 0.00388423,
        "meta_inclination": 55.0425,
        "meta_ra_of_asc_node": 27.0197,
        "meta_arg_of_pericenter": 241.5588,
        "meta_mean_anomaly": 211.3182,
        "meta_ephemeris_type": 0,
        "meta_classification_type": "U",
        "meta_norad_cat_id": 26360,
        "meta_element_set_no": 999,
        "meta_rev_at_epoch": 18744,
        "meta_bstar": 0,
        "meta_mean_motion_dot": -8.7e-07,
        "meta_mean_motion_ddot": 0,
        "tle_line1": "1 26360U 00025A   25342.24558569 -.00000087  00000+0  00000+0 0  9998",
        "tle_line2": "2 26360  55.0425  27.0197 0038842 241.5588 211.3182  2.00567966187447"
      },
      "geometry": {
        "type": "Point",
        "coordinates": [
          -72.08567995277748,
          -54.699797714449986
        ]
      }
    },
    {
      "type": "Feature",
      "properties": {
        "norad_id": 26407,
        "name": "GPS BIIR-5  (PRN 22)",
        "group": "gnss",
        "lat": 52.347401586654364,
        "lon": -22.931357421085142,
        "alt_km": 20495.152846619418,
        "timestamp": "2025-12-08T23:34:04.210873+00:00",
        "meta_object_name": "GPS BIIR-5  (PRN 22)",
        "meta_object_id": "2000-040A",
        "meta_epoch": "2025-12-08T14:09:49.029120",
        "meta_mean_motion": 2.00567832,
        "meta_eccentricity": 0.0126238,
        "meta_inclination": 54.8918,
        "meta_ra_of_asc_node": 222.7341,
        "meta_arg_of_pericenter": 301.732,
        "meta_mean_anomaly": 239.5319,
        "meta_ephemeris_type": 0,
        "meta_classification_type": "U",
        "meta_norad_cat_id": 26407,
        "meta_element_set_no": 999,
        "meta_rev_at_epoch": 18612,
        "meta_bstar": 0,
        "meta_mean_motion_dot": 1.3e-07,
        "meta_mean_motion_ddot": 0,
        "tle_line1": "1 26407U 00040A   25342.59015080  .00000013  00000+0  00000+0 0  9999",
        "tle_line2": "2 26407  54.8918 222.7341 0126238 301.7320 239.5319  2.00567832186128"
      },
      "geometry": {
        "type": "Point",
        "coordinates": [
          -22.931357421085142,
          52.347401586654364
        ]
      }
    },
    {
      "type": "Feature",
      "properties": {
        "norad_id": 27663,
        "name": "GPS BIIR-8  (PRN 16)",
        "group": "gnss",
        "lat": -44.99637376501726,
        "lon": 87.12857972132512,
        "alt_km": 20574.335406996903,
        "timestamp": "2025-12-08T23:34:04.210888+00:00",
        "meta_object_name": "GPS BIIR-8  (PRN 16)",
        "meta_object_id": "2003-005A",
        "meta_epoch": "2025-12-08T15:56:33.297792",
        "meta_mean_motion": 2.00571063,
        "meta_eccentricity": 0.01472931,
        "meta_inclination": 54.9243,
        "meta_ra_of_asc_node": 222.5404,
        "meta_arg_of_pericenter": 51.7448,
        "meta_mean_anomaly": 318.8801,
        "meta_ephemeris_type": 0,
        "meta_classification_type": "U",
        "meta_norad_cat_id": 27663,
        "meta_element_set_no": 999,
        "meta_rev_at_epoch": 16749,
        "meta_bstar": 0,
        "meta_mean_motion_dot": 1.2e-07,
        "meta_mean_motion_ddot": 0,
        "tle_line1": "1 27663U 03005A   25342.66427428  .00000012  00000+0  00000+0 0  9998",
        "tle_line2": "2 27663  54.9243 222.5404 0147293  51.7448 318.8801  2.00571063167497"
      },
      "geometry": {
        "type": "Point",
        "coordinates": [
          87.12857972132512,
          -44.99637376501726
        ]
      }
    },
    {
      "type": "Feature",
      "properties": {
        "norad_id": 28190,
        "name": "GPS BIIR-11 (PRN 19)",
        "group": "gnss",
        "lat": 30.254618450240336,
        "lon": -52.54484116225093,
        "alt_km": 20360.23612602961,
        "timestamp": "2025-12-08T23:34:04.210902+00:00",
        "meta_object_name": "GPS BIIR-11 (PRN 19)",
        "meta_object_id": "2004-009A",
        "meta_epoch": "2025-12-08T00:54:44.996256",
        "meta_mean_motion": 2.00560848,
        "meta_eccentricity": 0.01082887,
        "meta_inclination": 54.99,
        "meta_ra_of_asc_node": 283.4084,
        "meta_arg_of_pericenter": 167.5613,
        "meta_mean_anomaly": 269.7716,
        "meta_ephemeris_type": 0,
        "meta_classification_type": "U",
        "meta_norad_cat_id": 28190,
        "meta_element_set_no": 999,
        "meta_rev_at_epoch": 15911,
        "meta_bstar": 0,
        "meta_mean_motion_dot": -4.5e-07,
        "meta_mean_motion_ddot": 0,
        "tle_line1": "1 28190U 04009A   25342.03802079 -.00000045  00000+0  00000+0 0  9996",
        "tle_line2": "2 28190  54.9900 283.4084 0108288 167.5613 269.7716  2.00560848159112"
      },
      "geometry": {
        "type": "Point",
        "coordinates": [
          -52.54484116225093,
          30.254618450240336
        ]
      }
    },
    {
      "type": "Feature",
      "properties": {
        "norad_id": 28474,
        "name": "GPS BIIR-13 (PRN 02)",
        "group": "gnss",
        "lat": 54.01726932335565,
        "lon": 79.57604566595366,
        "alt_km": 20570.226826961312,
        "timestamp": "2025-12-08T23:34:04.210915+00:00",
        "meta_object_name": "GPS BIIR-13 (PRN 02)",
        "meta_object_id": "2004-045A",
        "meta_epoch": "2025-12-08T12:02:32.207424",
        "meta_mean_motion": 2.00569196,
        "meta_eccentricity": 0.01706814,
        "meta_inclination": 55.2428,
        "meta_ra_of_asc_node": 332.5762,
        "meta_arg_of_pericenter": 309.0669,
        "meta_mean_anomaly": 163.0919,
        "meta_ephemeris_type": 0,
        "meta_classification_type": "U",
        "meta_norad_cat_id": 28474,
        "meta_element_set_no": 999,
        "meta_rev_at_epoch": 15460,
        "meta_bstar": 0,
        "meta_mean_motion_dot": -8.3e-07,
        "meta_mean_motion_ddot": 0,
        "tle_line1": "1 28474U 04045A   25342.50176166 -.00000083  00000+0  00000+0 0  9996",
        "tle_line2": "2 28474  55.2428 332.5762 0170681 309.0669 163.0919  2.00569196154600"
      },
      "geometry": {
        "type": "Point",
        "coordinates": [
          79.57604566595366,
          54.01726932335565
        ]
      }
    },
    {
      "type": "Feature",
      "properties": {
        "norad_id": 28874,
        "name": "GPS BIIRM-1 (PRN 17)",
        "group": "gnss",
        "lat": 44.584050777773975,
        "lon": -35.63041856215468,
        "alt_km": 20375.544377399438,
        "timestamp": "2025-12-08T23:34:04.210928+00:00",
        "meta_object_name": "GPS BIIRM-1 (PRN 17)",
        "meta_object_id": "2005-038A",
        "meta_epoch": "2025-12-08T01:59:22.553088",
        "meta_mean_motion": 2.00578599,
        "meta_eccentricity": 0.01317899,
        "meta_inclination": 55.0361,
        "meta_ra_of_asc_node": 280.8884,
        "meta_arg_of_pericenter": 293.3737,
        "meta_mean_anomaly": 195.059,
        "meta_ephemeris_type": 0,
        "meta_classification_type": "U",
        "meta_norad_cat_id": 28874,
        "meta_element_set_no": 999,
        "meta_rev_at_epoch": 14800,
        "meta_bstar": 0,
        "meta_mean_motion_dot": -4.3e-07,
        "meta_mean_motion_ddot": 0,
        "tle_line1": "1 28874U 05038A   25342.08289992 -.00000043  00000+0  00000+0 0  9994",
        "tle_line2": "2 28874  55.0361 280.8884 0131789 293.3737 195.0590  2.00578599148009"
      },
      "geometry": {
        "type": "Point",
        "coordinates": [
          -35.63041856215468,
          44.584050777773975
        ]
      }
    }
  ]
}